EQUISAT                 
1 43552U 98067PA  20308.15612371  .00169384  00000-0  62989-3 0  9996
2 43552  51.6284 291.1073 0002315  29.5943 330.5192 15.87020056132129
AEROCUBE 12A            
1 43556U 18046C   20307.84363698  .00002292  00000-0  89264-4 0  9999
2 43556  51.6397 160.4079 0008829  73.6309 286.5642 15.30285487128566
AEROCUBE 12B            
1 43557U 18046D   20308.38950135  .00002965  00000-0  11304-3 0  9994
2 43557  51.6400 158.7845 0008760  74.7719 285.4229 15.29940825128587
UITMSAT-1               
1 43589U 98067PD  20308.20177098  .00409878  83955-4  73713-3 0  9990
2 43589  51.6276 282.8690 0004163  80.4257 279.7223 16.01064271127979
MAYA-1                  
1 43590U 98067PE  20308.19308802  .00423475  89043-4  76178-3 0  9990
2 43590  51.6225 282.7283 0004174  84.0844 276.0642 16.01056153127904
BHUTAN-1                
1 43591U 98067PF  20308.38828593  .00522473  13438-3  87086-3 0  9998
2 43591  51.6275 281.1986 0004201  87.3994 272.7498 16.02341747127949
SIRIUSSAT-1             
1 43595U 98067PG  20307.46333634  .00067888  12824-4  23108-3 0  9995
2 43595  51.6173 295.9734 0007965  17.7568 342.4017 15.90032535126846
SIRIUSSAT-2             
1 43596U 98067PH  20308.47619137  .00131714  17469-4  43069-3 0  9991
2 43596  51.6211 291.5665 0004707  28.3096 331.8841 15.90386928126991
SURFSAT                 
1 43614U 18070B   20307.79203739  .00005852  00000-0  14652-3 0  9997
2 43614  93.0295 211.8806 0015967 151.9726 208.2391 15.39979804119767
CP7 (DAVE)              
1 43615U 18070C   20307.70817939  .00005350  00000-0  13479-3 0  9991
2 43615  93.0298 211.8270 0016134 152.0935 208.1189 15.39788493119741
ELFIN-B                 
1 43616U 18070D   20308.00366745  .00008710  00000-0  20708-3 0  9996
2 43616  93.0257 211.9456 0016373 151.4263 208.7893 15.41515423119850
ELFIN-A                 
1 43617U 18070E   20307.75761566  .00009118  00000-0  21499-3 0  9999
2 43617  93.0312 212.4744 0015926 148.6513 211.5696 15.41771571119826
CUBEBEL-1 (BSUSAT-1)    
1 43666U 18083E   20308.21882113  .00001471  00000-0  74444-4 0  9994
2 43666  97.4800 333.2632 0013422 233.8928 191.1540 15.18535430111676
CICERO 10               
1 43690U 18088A   20307.84504274  .00001699  00000-0  75806-4 0  9998
2 43690  85.0380 347.1284 0015756 154.4572 205.7451 15.20478744109780
IRVINE01                
1 43693U 18088D   20307.85032778  .00005145  00000-0  21271-3 0  9993
2 43693  85.0346 345.3685 0019282 136.3025 223.9749 15.23539423109912
PROXIMA I               
1 43694U 18088E   20307.61270384  .00001550  00000-0  65306-4 0  9999
2 43694  85.0322 345.4651 0020857 130.8609 229.4446 15.22222755109863
PROXIMA II              
1 43696U 18088G   20308.13671172  .00001496  00000-0  62960-4 0  9991
2 43696  85.0322 345.1236 0020968 129.0484 231.2628 15.22224307109931
FACSAT-1                
1 43721U 18096C   20308.50943325  .00002675  00000-0  10141-3 0  9995
2 43721  97.4097  21.2708 0017215 356.7124 102.7842 15.27642581107619
CENTAURI-2              
1 43722U 18096D   20308.20210952  .00004054  00000-0  14920-3 0  9998
2 43722  97.4108  21.3903 0017032 357.1765   2.9375 15.28311245107583
INNOSAT-2               
1 43738U 18096V   20308.46712678  .00005011  00000-0  16807-3 0  9995
2 43738  97.4142  24.2299 0022690 359.5734 127.5293 15.31115695107797
SIRION PATHFINDER-2     
1 43759U 18099B   20308.03045926  .00000961  00000-0  92119-4 0  9999
2 43759  97.6937  17.2325 0015973  82.4483 277.8536 14.95347775104640
CORVUS-BC 4             
1 43767U 18099K   20308.15702039  .00000626  00000-0  62688-4 0  9992
2 43767  97.6910  16.6143 0013425  86.4050 273.8745 14.94785237104629
MOVE-II                 
1 43780U 18099Y   20307.76145472  .00000977  00000-0  93114-4 0  9992
2 43780  97.6941  16.9514 0015037  92.9226 267.3716 14.95546291104588
SPACEBEE-7              
1 43816U 18099BL  20307.74153526  .00001054  00000-0  99373-4 0  9999
2 43816  97.6953  17.4062 0014790  79.2567 281.0319 14.95811796104167
SPACEBEE-5              
1 43817U 18099BM  20307.89941572  .00001765  00000-0  15983-3 0  9995
2 43817  97.7022  18.2525 0014571  78.4639 281.8217 14.96589766104218
SPACEBEE-6              
1 43818U 18099BN  20307.68545739  .00001514  00000-0  13965-3 0  9998
2 43818  97.6974  17.5645 0014824  79.2894 280.9995 14.96052085104315
SHIELDS 1               
1 43850U 18104B   20308.44011591  .00000995  00000-0  42382-4 0  9998
2 43850  85.0284  83.4526 0012653 281.4658  78.5162 15.21515663104603
STF-1                   
1 43852U 18104D   20308.45617772  .00002650  00000-0  11565-3 0  9992
2 43852  85.0325  84.0647 0012525 298.2858  61.7120 15.21581588104582
ZACUBE-2                
1 43907U 18111AH  20308.47764774  .00000941  00000-0  40595-4 0  9995
2 43907  97.2503 203.9380 0022181  16.7286  88.6635 15.24751062103193
LUME 1                  
1 43908U 18111AJ  20308.40186950  .00002291  00000-0  93102-4 0  9995
2 43908  97.2504 204.1431 0021622  16.6996 343.4950 15.25341953103200
AOBA VELOX-IV           
1 43940U 19003J   20307.93806906  .00003627  00000-0  14452-3 0  9993
2 43940  97.2115 354.3794 0025261  93.3272 267.0857 15.25538657 99756
CATSAT-2                
1 44029U 98067PV  20308.34609464  .00059045  00000-0  45496-3 0  9992
2 44029  51.6380 329.5113 0002048 310.6893  49.3927 15.71391379100317
DELPHINI                
1 44030U 98067PW  20307.79937878  .00066839  00000-0  47312-3 0  9993
2 44030  51.6319 329.4099 0001628 324.3649  35.7241 15.73344529100233
UNITE                   
1 44031U 98067PX  20307.83188357  .00025074  00000-0  26049-3 0  9999
2 44031  51.6380 343.3022 0001418 255.8501 104.2336 15.64460343100055
CATSAT-1                
1 44033U 98067PZ  20307.90087433  .00064867  00000-0  49998-3 0  9993
2 44033  51.6381 331.7992 0002121 304.7129  55.3669 15.71345154100153
RAAVANA-1               
1 44329U 98067QE  20308.39714373  .00026191  00000-0  30716-3 0  9991
2 44329  51.6392 356.1635 0004307 151.6862 208.4367 15.61307370 78684
UGUISU                  
1 44330U 98067QF  20308.16268869  .00028067  00000-0  33036-3 0  9994
2 44330  51.6371 357.5597 0004335 150.1081 210.0160 15.61171764 78623
NEPALISAT-1             
1 44331U 98067QG  20307.87623916  .00026552  00000-0  31148-3 0  9999
2 44331  51.6373 358.6492 0004303 153.3265 206.7951 15.61292512 78597
SPOOQY-1                
1 44332U 98067QH  20308.40293735  .00025894  00000-0  30585-3 0  9994
2 44332  51.6380 356.1777 0003394 155.6284 204.4871 15.61132106 78633
SPACEBEE-9              
1 44370U 19037F   20307.62886797  .00022212  00000-0  44986-3 0  9996
2 44370  45.0065  61.9684 0014635 284.3446  75.5819 15.45981698 75962
SPACEBEE-8              
1 44371U 19037G   20307.67707636  .00045967  00000-0  71372-3 0  9997
2 44371  45.0068  49.6701 0013400 300.1736  59.7829 15.53201518 76092
IOD-1 GEMS              
1 44385U 98067QK  20307.83814886  .00048703  00000-0  46613-3 0  9997
2 44385  51.6388 353.9724 0002547  69.5877 290.5392 15.66184258 76133
MOVE-IIB                
1 44398U 19038N   20308.15569074  .00002649  00000-0  15406-3 0  9999
2 44398  97.5523 267.7647 0025844  13.0292 347.1608 15.12676981 73544
SONATE                  
1 44400U 19038Q   20307.90014976  .00000939  00000-0  57958-4 0  9990
2 44400  97.5559 267.5109 0025622  12.9509 347.2374 15.12107491 73491
LUCKY-7                 
1 44406U 19038W   20308.15508081  .00001352  00000-0  81162-4 0  9993
2 44406  97.5578 267.9168 0024940  11.9617 348.2200 15.12406680 73534
BEESAT 9                
1 44412U 19038AC  20308.47488431  .00001773  00000-0  10487-3 0  9999
2 44412  97.5568 268.2185 0023150  16.7761 343.4231 15.12549640 73285
JAISAT-1                
1 44419U 19038F   20308.12007722  .00001811  00000-0  10571-3 0  9995
2 44419  97.5570 268.2371 0021992  17.1895 343.0076 15.13032763 73565
SWIATOWID               
1 44426U 98067QL  20308.52584764  .00054932  00000-0  48087-3 0  9997
2 44426  51.6407 348.4538 0003298  58.2027  91.7658 15.68336532 76276
KRAKSAT                 
1 44427U 98067QM  20308.44134756  .00015082  00000-0  20081-3 0  9998
2 44427  51.6438   1.5571 0003566  99.4164 357.2681 15.58366917 76132
VCC A                   
1 44428U 98067QN  20307.87614877  .00024596  00000-0  29849-3 0  9993
2 44428  51.6402   0.9850 0002204 102.4223 257.7017 15.60457682 76091
ENTRYSAT                
1 44429U 98067QP  20307.53917053  .00029879  00000-0  33736-3 0  9998
2 44429  51.6380   0.1851 0002132  83.4553 276.6683 15.62223150 76074
VCC C                   
1 44430U 98067QQ  20307.56393839  .00036873  00000-0  37803-3 0  9994
2 44430  51.6376 357.3535 0001586  76.9981 283.1191 15.64584589 74940
VCC B                   
1 44431U 98067QR  20307.87038915  .00025540  00000-0  30849-3 0  9992
2 44431  51.6383   0.9128 0002302 103.5356 256.5894 15.60557465 76033
DUCHIFAT-3              
1 44854U 19089C   20308.50134152  .00000648  00000-0  58635-4 0  9995
2 44854  36.9676 356.5478 0007258 102.8608 257.2939 14.99179861 49172
EYESAT-NANO             
1 44877U 19092E   20308.06169278  .00001924  00000-0  10031-3 0  9997
2 44877  97.4564 129.1174 0012150 256.1277 103.8605 15.17113509 48605
ORBITAL FACTORY 2 (OF-2)
1 45113U 19071C   20307.56657302  .00005157  00000-0  16562-3 0  9999
2 45113  51.6444  56.1172 0012674 193.0780 166.9875 15.33951591 42325
M2 PATHFINDER           
1 45727U 20037E   20307.49882973 -.00000152  00000-0 -97417-5 0  9992
2 45727  97.7020 124.4125 0012198 197.1818 162.9059 14.91244520 18594
NETSAT-4                
1 46504U 20068U   20307.79192146 -.00000349  00000-0 -22116-4 0  9990
2 46504  97.6648 240.8741 0012039 132.1050 228.1200 15.01833682  5214
NETSAT-3                
1 46505U 20068V   20307.79279295 -.00000315  00000-0 -19547-4 0  9999
2 46505  97.6654 240.8720 0012219 132.1961 228.0303 15.01797008  5225
